{"type":"FeatureCollection","features":[{"type":"Feature","geometry":{"type":"MultiPolygon","coordinates":[[[[-2.669,51.622],[-2.741,51.581],[-2.979,51.539],[-3.08,51.496],[-3.26,51.398],[-3.292,51.39],[-3.562,51.414],[-3.764,51.539],[-3.89,51.591],[-3.944,51.598],[-3.998,51.582],[-4.117,51.567],[-4.235,51.569],[-4.174,51.628],[-4.091,51.661],[-4.275,51.683],[-4.329,51.701],[-4.387,51.74],[-4.531,51.747],[-4.599,51.737],[-4.718,51.683],[-4.901,51.626],[-5.125,51.706],[-5.168,51.74],[-5.168,51.808],[-5.2,51.862],[-5.261,51.879],[-5.182,51.949],[-5.089,51.996],[-4.88,52.043],[-4.559,52.15],[-4.383,52.197],[-4.217,52.277],[-4.149,52.326],[-4.099,52.393],[-4.052,52.475],[-3.98,52.543],[-4.048,52.558],[-4.081,52.608],[-4.07,52.659],[-4.041,52.704],[-4.066,52.761],[-4.117,52.82],[-4.113,52.865],[-4.102,52.916],[-4.228,52.912],[-4.358,52.897],[-4.473,52.862],[-4.585,52.815],[-4.682,52.806],[-4.682,52.845],[-4.639,52.891],[-4.527,52.957],[-4.405,53.013],[-4.361,53.056],[-4.329,53.105],[-4.268,53.145],[-4.109,53.22],[-3.811,53.303],[-3.764,53.308],[-3.645,53.298],[-3.53,53.31],[-3.429,53.341],[-3.325,53.348],[-3.098,53.259],[-3.166,53.395],[-3.065,53.426],[-2.918,53.305],[-2.864,53.292],[-2.749,53.31],[-2.795,53.331],[-2.846,53.332],[-2.914,53.35],[-2.968,53.39],[-3.065,53.513],[-3.058,53.586],[-2.997,53.662],[-2.925,53.733],[-2.983,53.747],[-3.033,53.773],[-3.044,53.845],[-3.026,53.905],[-2.9,53.961],[-2.864,54.044],[-2.846,54.136],[-2.867,54.178],[-2.993,54.171],[-3.055,54.154],[-3.109,54.126],[-3.166,54.127],[-3.321,54.23],[-3.411,54.306],[-3.569,54.468],[-3.591,54.565],[-3.465,54.773],[-3.267,54.907],[-3.037,54.954],[-3.08,54.962],[-3.433,54.964],[-3.551,54.947],[-3.659,54.893],[-3.721,54.876],[-3.782,54.87],[-3.843,54.843],[-3.897,54.805],[-3.958,54.78],[-4.077,54.787],[-4.135,54.778],[-4.174,54.801],[-4.207,54.838],[-4.253,54.846],[-4.304,54.836],[-4.408,54.787],[-4.516,54.758],[-4.646,54.789],[-4.819,54.846],[-4.851,54.825],[-4.891,54.772],[-4.912,54.69],[-5.031,54.761],[-5.135,54.858],[-5.171,54.917],[-5.171,54.985],[-5.117,55.013],[-5.056,54.989],[-4.966,55.15],[-4.786,55.36],[-4.721,55.421],[-4.678,55.501],[-4.685,55.554],[-4.725,55.598],[-4.891,55.699],[-4.891,55.782],[-4.873,55.874],[-4.826,55.929],[-4.808,55.94],[-4.585,55.938],[-4.671,55.968],[-4.844,56.051],[-4.84,56.08],[-4.801,56.159],[-4.819,56.15],[-4.855,56.115],[-4.927,56.028],[-4.97,56.008],[-5.092,55.987],[-5.114,55.945],[-5.135,55.933],[-5.197,55.929],[-5.215,55.89],[-5.229,55.886],[-5.247,55.929],[-5.247,56.001],[-5.222,56.067],[-5.175,56.117],[-4.999,56.233],[-5.085,56.197],[-5.283,56.089],[-5.384,56.02],[-5.409,55.995],[-5.42,55.975],[-5.42,55.952],[-5.373,55.827],[-5.387,55.77],[-5.557,55.39],[-5.589,55.351],[-5.618,55.332],[-5.647,55.327],[-5.729,55.334],[-5.769,55.364],[-5.769,55.395],[-5.751,55.443],[-5.683,55.624],[-5.65,55.674],[-5.603,55.721],[-5.506,55.803],[-5.506,55.808],[-5.575,55.792],[-5.603,55.798],[-5.621,55.813],[-5.611,56.054],[-5.557,56.134],[-5.535,56.251],[-5.488,56.35],[-5.434,56.422],[-5.391,56.514],[-5.33,56.556],[-5.312,56.619],[-5.243,56.686],[-5.189,56.758],[-5.218,56.751],[-5.564,56.567],[-5.654,56.532],[-5.773,56.541],[-5.866,56.561],[-5.938,56.606],[-5.971,56.69],[-6.057,56.692],[-6.133,56.707],[-6.133,56.718],[-6.035,56.764],[-5.877,56.78],[-5.729,56.853],[-5.863,56.903],[-5.852,56.919],[-5.737,56.961],[-5.593,57.103],[-5.56,57.233],[-5.632,57.294],[-5.657,57.334],[-5.794,57.379],[-5.819,57.436],[-5.801,57.468],[-5.758,57.499],[-5.69,57.523],[-5.582,57.547],[-5.679,57.572],[-5.715,57.601],[-5.744,57.643],[-5.744,57.669],[-5.693,57.778],[-5.665,57.823],[-5.607,57.881],[-5.348,57.877],[-5.319,57.903],[-5.29,57.905],[-5.157,57.881],[-5.179,57.907],[-5.395,58.044],[-5.413,58.07],[-5.351,58.143],[-5.348,58.176],[-5.355,58.212],[-5.337,58.238],[-5.269,58.252],[-5.06,58.25],[-5.009,58.263],[-5.031,58.299],[-5.081,58.346],[-5.089,58.384],[-5.078,58.419],[-5.074,58.49],[-5.067,58.52],[-5.017,58.566],[-4.977,58.58],[-4.923,58.589],[-4.808,58.573],[-4.765,58.554],[-4.714,58.509],[-4.678,58.514],[-4.534,58.561],[-4.491,58.568],[-4.433,58.513],[-4.189,58.558],[-3.861,58.577],[-3.663,58.606],[-3.454,58.617],[-3.26,58.65],[-3.055,58.634],[-3.047,58.615],[-3.058,58.589],[-3.109,58.516],[-3.101,58.435],[-3.112,58.408],[-3.137,58.379],[-3.213,58.322],[-3.411,58.24],[-3.775,58.053],[-3.991,57.959],[-4.019,57.914],[-4.034,57.851],[-3.908,57.839],[-3.857,57.818],[-3.886,57.787],[-4.077,57.678],[-4.135,57.577],[-3.987,57.58],[-3.868,57.599],[-3.627,57.662],[-3.404,57.709],[-3.296,57.711],[-3.083,57.674],[-3.037,57.672],[-2.947,57.69],[-2.857,57.691],[-2.245,57.681],[-2.075,57.702],[-1.96,57.676],[-1.867,57.612],[-1.777,57.494],[-1.78,57.474],[-1.834,57.421],[-1.935,57.353],[-2.021,57.259],[-2.047,57.209],[-2.061,57.153],[-2.09,57.103],[-2.259,56.863],[-2.428,56.731],[-2.5,56.636],[-2.594,56.561],[-2.68,56.514],[-2.774,56.483],[-3.047,56.449],[-3.123,56.426],[-3.213,56.384],[-3.31,56.363],[-3.199,56.367],[-3.087,56.389],[-2.885,56.398],[-2.651,56.318],[-2.673,56.254],[-2.767,56.202],[-2.979,56.193],[-3.177,56.08],[-3.267,56.046],[-3.361,56.028],[-3.479,56.034],[-3.695,56.063],[-3.789,56.094],[-3.703,56.044],[-3.609,56.016],[-3.047,55.952],[-3.015,55.959],[-2.839,56.027],[-2.601,56.027],[-2.147,55.903],[-2.018,55.808],[-1.831,55.673],[-1.73,55.619],[-1.654,55.57],[-1.611,55.499],[-1.521,55.259],[-1.424,55.027],[-1.291,54.773],[-1.233,54.704],[-1.154,54.655],[-0.758,54.541],[-0.671,54.504],[-0.517,54.395],[-0.369,54.279],[-0.232,54.19],[-0.085,54.119],[-0.157,54.081],[-0.207,54.022],[-0.167,53.942],[-0.11,53.865],[0.009,53.742],[0.117,53.608],[0.077,53.629],[0.038,53.64],[-0.02,53.638],[-0.074,53.643],[-0.175,53.685],[-0.272,53.737],[-0.463,53.716],[-0.567,53.725],[-0.661,53.725],[-0.484,53.695],[-0.293,53.692],[0.128,53.468],[0.272,53.336],[0.355,53.161],[0.297,53.081],[0.207,53.03],[0.124,52.971],[0.045,52.905],[0.279,52.808],[0.329,52.812],[0.383,52.825],[0.43,52.858],[0.517,52.938],[0.56,52.966],[0.704,52.977],[0.826,52.971],[0.949,52.954],[1.057,52.959],[1.273,52.924],[1.381,52.893],[1.658,52.754],[1.715,52.678],[1.744,52.579],[1.748,52.47],[1.701,52.369],[1.647,52.279],[1.615,52.162],[1.593,52.119],[1.561,52.088],[1.413,51.994],[1.316,51.957],[1.276,51.973],[1.233,51.971],[1.229,51.949],[1.273,51.902],[1.276,51.845],[1.19,51.803],[1.1,51.786],[0.956,51.808],[0.751,51.73],[0.898,51.69],[0.927,51.647],[0.891,51.572],[0.801,51.537],[0.697,51.523],[0.592,51.52],[0.506,51.501],[0.423,51.466],[0.527,51.485],[0.599,51.468],[0.646,51.405],[0.686,51.386],[0.891,51.36],[1.013,51.36],[1.258,51.376],[1.373,51.374],[1.417,51.364],[1.417,51.312],[1.399,51.181],[1.366,51.155],[1.046,51.048],[0.977,50.971],[0.959,50.926],[0.772,50.933],[0.686,50.886],[0.531,50.853],[0.416,50.819],[0.301,50.775],[0.203,50.763],[-0.203,50.815],[-0.452,50.81],[-0.787,50.765],[-0.873,50.774],[-0.999,50.815],[-1.132,50.845],[-1.283,50.857],[-1.417,50.897],[-1.334,50.82],[-1.517,50.747],[-1.6,50.734],[-1.687,50.735],[-1.867,50.714],[-2.032,50.725],[-2.007,50.673],[-1.964,50.628],[-1.996,50.609],[-2.036,50.603],[-2.349,50.638],[-2.396,50.631],[-2.432,50.6],[-2.547,50.616],[-2.659,50.669],[-2.777,50.706],[-2.9,50.723],[-3.001,50.716],[-3.404,50.633],[-3.487,50.548],[-3.526,50.428],[-3.584,50.322],[-3.681,50.241],[-3.793,50.228],[-3.901,50.286],[-4.102,50.348],[-4.174,50.392],[-4.196,50.393],[-4.217,50.378],[-4.297,50.359],[-4.379,50.359],[-4.505,50.341],[-4.729,50.291],[-4.819,50.256],[-5.009,50.161],[-5.049,50.135],[-5.117,50.039],[-5.225,50.022],[-5.323,50.083],[-5.434,50.105],[-5.549,50.083],[-5.621,50.051],[-5.654,50.077],[-5.657,50.131],[-5.571,50.197],[-5.341,50.246],[-5.143,50.374],[-5.042,50.452],[-5.006,50.496],[-4.955,50.524],[-4.894,50.534],[-4.862,50.583],[-4.585,50.777],[-4.559,50.82],[-4.545,50.9],[-4.523,50.977],[-4.297,51.027],[-4.189,51.188],[-4.16,51.201],[-3.843,51.23],[-3.609,51.228],[-3.375,51.197],[-3.256,51.194],[-3.137,51.206],[-3.044,51.249],[-2.882,51.405],[-2.792,51.475],[-2.687,51.537],[-2.59,51.609],[-2.432,51.74],[-2.54,51.695],[-2.669,51.622]]],[[[-4.196,53.322],[-4.156,53.303],[-4.048,53.306],[-4.084,53.265],[-4.199,53.218],[-4.279,53.173],[-4.372,53.134],[-4.419,53.178],[-4.473,53.176],[-4.552,53.261],[-4.567,53.386],[-4.462,53.419],[-4.315,53.417],[-4.196,53.322]]],[[[-2.551,59.231],[-2.662,59.23],[-2.605,59.289],[-2.536,59.304],[-2.407,59.297],[-2.428,59.271],[-2.551,59.231]]],[[[-1.042,60.514],[-1.067,60.502],[-1.165,60.605],[-1.093,60.721],[-1.006,60.717],[-0.992,60.686],[-0.999,60.658],[-1.046,60.655],[-1.049,60.646],[-1.035,60.592],[-1.035,60.53],[-1.042,60.514]]],[[[-1.309,60.537],[-1.287,60.467],[-1.237,60.485],[-1.157,60.417],[-1.118,60.417],[-1.053,60.445],[-1.067,60.382],[-1.132,60.207],[-1.154,60.177],[-1.165,60.124],[-1.179,60.113],[-1.201,60.007],[-1.244,59.971],[-1.283,59.888],[-1.298,59.879],[-1.355,59.912],[-1.298,60.04],[-1.276,60.115],[-1.291,60.153],[-1.323,60.188],[-1.409,60.19],[-1.481,60.174],[-1.496,60.195],[-1.499,60.223],[-1.517,60.231],[-1.615,60.23],[-1.64,60.236],[-1.661,60.263],[-1.665,60.283],[-1.575,60.299],[-1.496,60.292],[-1.373,60.334],[-1.449,60.469],[-1.55,60.481],[-1.571,60.495],[-1.553,60.518],[-1.499,60.53],[-1.413,60.599],[-1.363,60.61],[-1.301,60.608],[-1.309,60.537]]],[[[-0.776,60.813],[-0.776,60.801],[-0.826,60.716],[-0.826,60.684],[-0.909,60.688],[-0.923,60.697],[-0.938,60.745],[-0.927,60.797],[-0.916,60.811],[-0.891,60.816],[-0.866,60.806],[-0.823,60.832],[-0.801,60.832],[-0.776,60.813]]],[[[-3.166,58.794],[-3.224,58.782],[-3.278,58.782],[-3.368,58.839],[-3.4,58.882],[-3.393,58.91],[-3.357,58.919],[-3.271,58.905],[-3.227,58.856],[-3.224,58.825],[-3.213,58.813],[-3.159,58.801],[-3.166,58.794]]],[[[-2.929,58.742],[-2.939,58.738],[-2.975,58.757],[-3.037,58.823],[-2.939,58.836],[-2.896,58.827],[-2.914,58.799],[-2.929,58.742]]],[[[-3.058,59.03],[-3.069,59.006],[-2.993,59.006],[-2.885,58.985],[-2.817,58.981],[-2.763,58.955],[-2.792,58.907],[-2.828,58.893],[-2.864,58.891],[-2.993,58.94],[-3.166,58.919],[-3.202,58.926],[-3.224,58.938],[-3.231,58.955],[-3.231,58.99],[-3.242,59],[-3.303,58.967],[-3.332,58.971],[-3.346,58.987],[-3.353,59.02],[-3.346,59.065],[-3.31,59.131],[-3.249,59.145],[-3.155,59.136],[-3.051,59.099],[-3.019,59.077],[-3.019,59.058],[-3.058,59.03]]],[[[-2.731,59.186],[-2.817,59.162],[-2.853,59.183],[-2.86,59.247],[-2.965,59.275],[-3.015,59.292],[-3.051,59.323],[-3.044,59.334],[-2.975,59.348],[-2.86,59.289],[-2.813,59.24],[-2.731,59.226],[-2.72,59.219],[-2.731,59.186]]],[[[-6.608,56.586],[-6.665,56.579],[-6.669,56.594],[-6.568,56.662],[-6.507,56.672],[-6.485,56.666],[-6.529,56.627],[-6.608,56.586]]],[[[-5.107,55.449],[-5.233,55.449],[-5.276,55.457],[-5.33,55.482],[-5.391,55.619],[-5.369,55.667],[-5.344,55.69],[-5.319,55.709],[-5.251,55.718],[-5.186,55.692],[-5.161,55.667],[-5.107,55.574],[-5.096,55.494],[-5.107,55.449]]],[[[-5.776,56.344],[-6.176,56.289],[-6.313,56.294],[-6.327,56.322],[-6.298,56.339],[-6.187,56.357],[-6.14,56.49],[-6.309,56.553],[-6.32,56.57],[-6.305,56.6],[-6.287,56.612],[-6.183,56.643],[-6.14,56.65],[-6.104,56.646],[-6.028,56.61],[-5.945,56.535],[-5.837,56.523],[-5.762,56.49],[-5.776,56.344]]],[[[-6.129,55.931],[-6.093,55.803],[-6.057,55.723],[-6.057,55.695],[-6.089,55.657],[-6.251,55.607],[-6.305,55.607],[-6.305,55.619],[-6.269,55.671],[-6.302,55.728],[-6.287,55.773],[-6.302,55.78],[-6.334,55.775],[-6.453,55.704],[-6.493,55.697],[-6.496,55.711],[-6.467,55.77],[-6.464,55.808],[-6.446,55.832],[-6.413,55.855],[-6.374,55.872],[-6.345,55.874],[-6.313,55.857],[-6.215,55.905],[-6.129,55.931]]],[[[-5.971,55.815],[-5.992,55.804],[-6.043,55.806],[-6.061,55.824],[-6.071,55.848],[-6.071,55.893],[-6.043,55.926],[-5.913,55.975],[-5.971,55.992],[-5.974,56.004],[-5.938,56.046],[-5.798,56.108],[-5.762,56.12],[-5.726,56.119],[-5.798,56.006],[-5.971,55.815]]],[[[-6.197,58.363],[-6.327,58.19],[-6.374,58.185],[-6.421,58.141],[-6.554,58.093],[-6.435,58.093],[-6.403,58.075],[-6.403,58.042],[-6.424,58.021],[-6.579,57.941],[-6.683,57.91],[-6.795,57.827],[-6.853,57.827],[-6.91,57.773],[-6.957,57.751],[-6.982,57.751],[-7.015,57.761],[-7.083,57.813],[-6.957,57.865],[-6.943,57.893],[-6.856,57.924],[-6.863,57.933],[-7.004,57.974],[-7.058,58.004],[-7.051,58.018],[-6.986,58.051],[-7.018,58.054],[-7.04,58.072],[-7.076,58.079],[-7.09,58.096],[-7.094,58.138],[-7.087,58.183],[-7.043,58.202],[-7.029,58.223],[-7.011,58.228],[-6.95,58.218],[-6.885,58.183],[-6.813,58.197],[-6.727,58.19],[-6.723,58.198],[-6.788,58.283],[-6.777,58.301],[-6.741,58.322],[-6.543,58.382],[-6.298,58.487],[-6.237,58.502],[-6.219,58.488],[-6.194,58.435],[-6.197,58.363]]],[[[-6.28,56.964],[-6.309,56.952],[-6.345,56.954],[-6.385,56.971],[-6.431,57.018],[-6.323,57.051],[-6.277,57.032],[-6.262,57.009],[-6.262,56.985],[-6.28,56.964]]],[[[-6.143,57.506],[-6.147,57.461],[-6.165,57.409],[-6.14,57.353],[-6.136,57.315],[-6.093,57.301],[-6.068,57.284],[-5.881,57.263],[-5.704,57.27],[-5.672,57.252],[-5.668,57.226],[-5.697,57.198],[-5.794,57.146],[-5.913,57.063],[-5.949,57.046],[-5.989,57.044],[-6.014,57.053],[-6.035,57.202],[-6.161,57.183],[-6.266,57.185],[-6.323,57.202],[-6.363,57.237],[-6.442,57.327],[-6.676,57.363],[-6.741,57.412],[-6.763,57.443],[-6.752,57.459],[-6.705,57.495],[-6.644,57.483],[-6.604,57.49],[-6.583,57.507],[-6.583,57.521],[-6.615,57.553],[-6.615,57.563],[-6.377,57.603],[-6.359,57.667],[-6.305,57.672],[-6.248,57.652],[-6.165,57.586],[-6.143,57.506]]],[[[-7.205,57.683],[-7.094,57.627],[-7.184,57.534],[-7.321,57.534],[-7.515,57.601],[-7.515,57.615],[-7.501,57.636],[-7.472,57.653],[-7.439,57.657],[-7.393,57.645],[-7.324,57.664],[-7.27,57.657],[-7.205,57.683]]],[[[-7.249,57.115],[-7.292,57.11],[-7.346,57.115],[-7.382,57.131],[-7.414,57.192],[-7.421,57.23],[-7.407,57.299],[-7.411,57.381],[-7.295,57.384],[-7.267,57.372],[-7.249,57.126],[-7.249,57.115]]],[[[-7.418,56.966],[-7.504,56.952],[-7.537,56.959],[-7.544,56.973],[-7.522,57.008],[-7.454,57.02],[-7.407,57.001],[-7.4,56.983],[-7.418,56.966]]],[[[-6.219,54.089],[-6.302,54.094],[-6.363,54.077],[-6.403,54.062],[-6.439,54.063],[-6.547,54.058],[-6.651,54.058],[-6.665,54.084],[-6.647,54.164],[-6.669,54.185],[-6.766,54.195],[-6.802,54.214],[-6.86,54.268],[-6.871,54.294],[-6.878,54.329],[-6.935,54.374],[-7.007,54.407],[-7.051,54.409],[-7.133,54.355],[-7.202,54.301],[-7.177,54.275],[-7.155,54.24],[-7.195,54.214],[-7.306,54.155],[-7.324,54.133],[-7.357,54.121],[-7.411,54.138],[-7.544,54.134],[-7.605,54.143],[-7.677,54.187],[-7.853,54.216],[-7.886,54.284],[-7.918,54.296],[-8.12,54.414],[-8.145,54.454],[-8.12,54.476],[-8.044,54.513],[-7.792,54.572],[-7.753,54.594],[-7.745,54.615],[-7.821,54.64],[-7.886,54.666],[-7.907,54.683],[-7.911,54.699],[-7.871,54.718],[-7.796,54.719],[-7.738,54.711],[-7.691,54.728],[-7.605,54.745],[-7.551,54.768],[-7.501,54.825],[-7.45,54.877],[-7.447,54.905],[-7.4,55.004],[-7.378,55.028],[-7.22,55.093],[-7.18,55.056],[-7.101,55.048],[-7.029,55.081],[-6.946,55.183],[-6.889,55.188],[-6.824,55.181],[-6.698,55.193],[-6.475,55.24],[-6.374,55.242],[-6.233,55.218],[-6.129,55.218],[-6.035,55.145],[-5.985,55.03],[-5.87,54.916],[-5.715,54.817],[-5.711,54.758],[-5.765,54.725],[-5.881,54.685],[-5.877,54.641],[-5.805,54.664],[-5.74,54.673],[-5.582,54.664],[-5.528,54.619],[-5.492,54.555],[-5.47,54.501],[-5.485,54.442],[-5.524,54.461],[-5.567,54.513],[-5.614,54.537],[-5.672,54.549],[-5.647,54.478],[-5.657,54.381],[-5.632,54.372],[-5.557,54.371],[-5.607,54.273],[-5.708,54.246],[-5.827,54.235],[-5.855,54.2],[-5.877,54.155],[-5.938,54.089],[-6.017,54.051],[-6.118,54.058],[-6.219,54.089]]],[[[-1.064,50.69],[-1.15,50.655],[-1.175,50.616],[-1.197,50.6],[-1.251,50.59],[-1.305,50.588],[-1.514,50.669],[-1.564,50.666],[-1.517,50.704],[-1.384,50.734],[-1.312,50.774],[-1.143,50.735],[-1.064,50.69]]]]},"properties":{"name":"United Kingdom"}},{"type":"Feature","geometry":{"type":"MultiPolygon","coordinates":[[[[-17.192,32.868],[-17.055,32.816],[-16.929,32.841],[-16.774,32.773],[-16.692,32.757],[-16.764,32.71],[-16.839,32.648],[-17.019,32.664],[-17.17,32.723],[-17.224,32.768],[-17.242,32.808],[-17.192,32.868]]],[[[-8.779,41.941],[-8.681,42.008],[-8.588,42.054],[-8.537,42.069],[-8.321,42.114],[-8.267,42.137],[-8.213,42.133],[-8.203,42.113],[-8.174,42.069],[-8.138,42.04],[-8.131,42.019],[-8.213,41.927],[-8.224,41.896],[-8.181,41.837],[-8.174,41.819],[-8.152,41.812],[-8.095,41.814],[-7.99,41.852],[-7.922,41.883],[-7.897,41.871],[-7.691,41.889],[-7.645,41.875],[-7.612,41.857],[-7.511,41.837],[-7.403,41.833],[-7.27,41.864],[-7.209,41.896],[-7.198,41.929],[-7.195,41.955],[-7.177,41.972],[-7.148,41.981],[-7.097,41.965],[-7.029,41.951],[-6.867,41.946],[-6.835,41.963],[-6.777,41.958],[-6.705,41.934],[-6.619,41.942],[-6.575,41.913],[-6.557,41.875],[-6.554,41.79],[-6.557,41.705],[-6.543,41.672],[-6.485,41.665],[-6.392,41.665],[-6.309,41.642],[-6.244,41.602],[-6.223,41.561],[-6.212,41.533],[-6.244,41.515],[-6.291,41.455],[-6.403,41.375],[-6.565,41.304],[-6.691,41.215],[-6.777,41.107],[-6.881,41.062],[-6.914,41.038],[-6.928,41.009],[-6.856,40.878],[-6.835,40.778],[-6.817,40.654],[-6.831,40.62],[-6.835,40.482],[-6.853,40.443],[-6.849,40.411],[-6.82,40.377],[-6.809,40.344],[-6.86,40.3],[-6.95,40.252],[-7.015,40.208],[-7.033,40.168],[-7.029,40.142],[-6.917,40.057],[-6.896,40.022],[-6.91,39.937],[-6.975,39.799],[-7.036,39.713],[-7.047,39.705],[-7.119,39.682],[-7.454,39.68],[-7.537,39.661],[-7.526,39.644],[-7.447,39.536],[-7.364,39.479],[-7.335,39.465],[-7.306,39.338],[-7.173,39.135],[-7.043,39.108],[-6.997,39.057],[-7.007,38.986],[-7.047,38.906],[-7.126,38.826],[-7.22,38.771],[-7.281,38.715],[-7.285,38.649],[-7.306,38.568],[-7.335,38.502],[-7.342,38.457],[-7.105,38.181],[-6.975,38.194],[-6.957,38.187],[-6.982,38.122],[-7.022,38.045],[-7.072,38.03],[-7.184,38.007],[-7.292,37.906],[-7.378,37.786],[-7.443,37.727],[-7.504,37.585],[-7.497,37.524],[-7.468,37.429],[-7.407,37.179],[-7.493,37.168],[-7.835,37.005],[-7.94,37.005],[-8.138,37.076],[-8.483,37.101],[-8.599,37.122],[-8.739,37.075],[-8.847,37.076],[-8.937,37.016],[-8.998,37.033],[-8.926,37.167],[-8.815,37.431],[-8.818,37.592],[-8.793,37.733],[-8.822,37.872],[-8.879,37.958],[-8.804,38.184],[-8.811,38.3],[-8.879,38.446],[-8.667,38.424],[-8.735,38.483],[-8.8,38.517],[-8.861,38.51],[-8.915,38.512],[-9.095,38.455],[-9.185,38.437],[-9.214,38.448],[-9.203,38.538],[-9.25,38.656],[-9.178,38.687],[-9.092,38.696],[-9.02,38.746],[-8.977,38.804],[-9.002,38.903],[-8.937,38.998],[-8.793,39.078],[-8.869,39.066],[-8.955,39.016],[-9.092,38.835],[-9.135,38.743],[-9.254,38.714],[-9.358,38.698],[-9.409,38.708],[-9.473,38.731],[-9.481,38.799],[-9.473,38.852],[-9.43,38.96],[-9.416,39.113],[-9.351,39.248],[-9.358,39.285],[-9.376,39.338],[-9.319,39.391],[-9.25,39.425],[-9.149,39.543],[-9.005,39.821],[-8.836,40.116],[-8.851,40.153],[-8.887,40.179],[-8.872,40.259],[-8.771,40.606],[-8.732,40.651],[-8.685,40.753],[-8.674,40.916],[-8.656,41.029],[-8.66,41.087],[-8.674,41.154],[-8.739,41.285],[-8.804,41.561],[-8.811,41.653],[-8.757,41.698],[-8.847,41.705],[-8.887,41.765],[-8.879,41.831],[-8.779,41.941]]],[[[-25.026,36.96],[-25.033,36.941],[-25.087,36.95],[-25.159,36.943],[-25.198,36.997],[-25.162,37.019],[-25.083,37.024],[-25.044,37],[-25.026,36.96]]],[[[-31.139,39.406],[-31.182,39.359],[-31.257,39.377],[-31.283,39.394],[-31.261,39.496],[-31.2,39.521],[-31.139,39.479],[-31.139,39.406]]],[[[-27.074,38.644],[-27.096,38.634],[-27.304,38.661],[-27.362,38.698],[-27.387,38.766],[-27.351,38.788],[-27.261,38.802],[-27.128,38.79],[-27.042,38.741],[-27.042,38.679],[-27.074,38.644]]],[[[-27.78,38.556],[-27.826,38.543],[-28.093,38.62],[-28.186,38.656],[-28.309,38.745],[-27.963,38.637],[-27.78,38.556]]],[[[-28.64,38.524],[-28.744,38.523],[-28.842,38.599],[-28.698,38.639],[-28.654,38.615],[-28.626,38.587],[-28.604,38.55],[-28.64,38.524]]],[[[-28.147,38.453],[-28.064,38.413],[-28.19,38.404],[-28.23,38.385],[-28.334,38.413],[-28.453,38.408],[-28.532,38.462],[-28.55,38.519],[-28.51,38.554],[-28.402,38.554],[-28.147,38.453]]],[[[-25.648,37.84],[-25.587,37.833],[-25.267,37.849],[-25.18,37.839],[-25.191,37.764],[-25.252,37.734],[-25.44,37.715],[-25.735,37.762],[-25.832,37.826],[-25.846,37.873],[-25.846,37.894],[-25.785,37.911],[-25.648,37.84]]]]},"properties":{"name":"Portugal"}},{"type":"Feature","geometry":{"type":"Polygon","coordinates":[[[-2.219,35.104],[-2.191,35.03],[-2.133,34.971],[-1.921,34.835],[-1.795,34.752],[-1.791,34.722],[-1.834,34.655],[-1.849,34.608],[-1.816,34.558],[-1.741,34.497],[-1.733,34.467],[-1.751,34.433],[-1.791,34.368],[-1.708,34.176],[-1.694,33.99],[-1.715,33.858],[-1.715,33.782],[-1.705,33.717],[-1.633,33.566],[-1.679,33.318],[-1.625,33.183],[-1.55,33.073],[-1.51,32.877],[-1.449,32.785],[-1.352,32.703],[-1.298,32.676],[-1.19,32.608],[-1.111,32.552],[-1.064,32.469],[-1.161,32.4],[-1.24,32.337],[-1.262,32.271],[-1.226,32.165],[-1.226,32.108],[-1.276,32.089],[-1.478,32.094],[-1.636,32.099],[-1.816,32.105],[-2.072,32.115],[-2.23,32.122],[-2.45,32.131],[-2.522,32.125],[-2.723,32.096],[-2.864,32.075],[-2.885,32.068],[-2.932,32.042],[-2.961,31.964],[-2.99,31.874],[-3.019,31.834],[-3.44,31.705],[-3.605,31.686],[-3.699,31.7],[-3.767,31.69],[-3.825,31.662],[-3.847,31.62],[-3.85,31.566],[-3.836,31.513],[-3.796,31.438],[-3.789,31.362],[-3.814,31.309],[-3.821,31.256],[-3.832,31.198],[-3.811,31.167],[-3.771,31.162],[-3.731,31.136],[-3.674,31.112],[-3.623,31.066],[-3.627,31],[-3.667,30.964],[-3.703,30.945],[-3.861,30.928],[-3.987,30.914],[-4.149,30.809],[-4.322,30.698],[-4.531,30.625],[-4.621,30.605],[-4.779,30.553],[-4.97,30.466],[-5.063,30.327],[-5.179,30.165],[-5.294,30.058],[-5.449,29.957],[-5.593,29.917],[-5.776,29.869],[-6.003,29.832],[-6.165,29.818],[-6.215,29.811],[-6.356,29.808],[-6.428,29.816],[-6.478,29.82],[-6.5,29.81],[-6.507,29.784],[-6.511,29.726],[-6.521,29.66],[-6.565,29.605],[-6.597,29.579],[-6.637,29.568],[-6.755,29.584],[-6.856,29.601],[-7.094,29.626],[-7.141,29.62],[-7.159,29.613],[-7.234,29.575],[-7.349,29.495],[-7.429,29.424],[-7.486,29.393],[-7.623,29.376],[-7.684,29.35],[-7.943,29.174],[-7.997,29.133],[-8.264,28.98],[-8.339,28.929],[-8.401,28.881],[-8.559,28.768],[-8.66,28.719],[-8.678,28.69],[-8.685,28.62],[-8.685,28.469],[-8.685,28.324],[-8.685,28.112],[-8.685,27.9],[-8.685,27.657],[-8.818,27.657],[-8.818,27.655],[-8.815,27.613],[-8.786,27.53],[-8.775,27.461],[-8.789,27.417],[-8.804,27.362],[-8.797,27.308],[-8.775,27.251],[-8.753,27.192],[-8.753,27.152],[-8.793,27.12],[-8.89,27.105],[-9.002,27.091],[-9.085,27.091],[-9.207,27.1],[-9.286,27.098],[-9.355,27.098],[-9.412,27.089],[-9.488,27.051],[-9.571,26.99],[-9.675,26.91],[-9.736,26.86],[-9.819,26.85],[-9.902,26.85],[-9.981,26.89],[-10.032,26.91],[-10.068,26.909],[-10.122,26.881],[-10.19,26.86],[-10.251,26.86],[-10.356,26.902],[-10.478,26.961],[-10.55,26.99],[-10.654,27.001],[-10.759,27.02],[-10.831,27.011],[-10.924,27.011],[-11.047,26.971],[-11.151,26.942],[-11.263,26.91],[-11.392,26.883],[-11.36,26.794],[-11.317,26.745],[-11.317,26.685],[-11.338,26.633],[-11.4,26.584],[-11.472,26.52],[-11.511,26.469],[-11.554,26.402],[-11.583,26.36],[-11.637,26.296],[-11.684,26.214],[-11.698,26.162],[-11.72,26.105],[-11.756,26.086],[-11.882,26.07],[-11.961,26.051],[-12.03,26.03],[-12.058,25.996],[-12.062,25.99],[-12.08,25.921],[-12.08,25.871],[-12.102,25.831],[-12.13,25.732],[-12.17,25.64],[-12.202,25.52],[-12.231,25.421],[-12.271,25.259],[-12.31,25.11],[-12.361,24.97],[-12.4,24.881],[-12.433,24.831],[-12.501,24.77],[-12.562,24.732],[-12.631,24.68],[-12.71,24.631],[-12.822,24.57],[-12.912,24.52],[-12.948,24.497],[-12.991,24.47],[-13.063,24.4],[-13.12,24.301],[-13.16,24.22],[-13.232,24.091],[-13.282,24.02],[-13.311,23.982],[-13.39,23.942],[-13.48,23.911],[-13.581,23.871],[-13.66,23.831],[-13.772,23.791],[-13.84,23.751],[-13.891,23.692],[-13.93,23.621],[-13.981,23.52],[-14.02,23.411],[-14.042,23.341],[-14.1,23.1],[-14.121,22.961],[-14.143,22.871],[-14.172,22.76],[-14.19,22.591],[-14.19,22.451],[-14.211,22.371],[-14.222,22.31],[-14.272,22.241],[-14.312,22.19],[-14.38,22.121],[-14.442,22.081],[-14.46,22.041],[-14.521,21.991],[-14.582,21.911],[-14.632,21.86],[-14.622,21.82],[-14.611,21.751],[-14.64,21.68],[-14.672,21.6],[-14.751,21.501],[-14.841,21.451],[-14.971,21.44],[-15.151,21.44],[-15.291,21.451],[-15.46,21.451],[-15.612,21.47],[-15.752,21.491],[-15.921,21.501],[-16.04,21.501],[-16.191,21.48],[-16.58,21.48],[-16.731,21.47],[-16.951,21.43],[-17.005,21.421],[-16.929,21.9],[-16.792,22.159],[-16.684,22.274],[-16.515,22.334],[-16.36,22.595],[-16.303,22.834],[-16.202,22.945],[-16.17,23.032],[-16.209,23.098],[-16.112,23.228],[-15.997,23.426],[-15.943,23.553],[-15.806,23.749],[-15.788,23.793],[-15.802,23.843],[-15.856,23.799],[-15.914,23.728],[-15.982,23.671],[-15.954,23.74],[-15.9,23.845],[-15.777,23.952],[-15.586,24.072],[-15.19,24.478],[-15.039,24.549],[-14.906,24.72],[-14.856,24.872],[-14.841,25.22],[-14.794,25.404],[-14.708,25.548],[-14.604,25.808],[-14.524,25.926],[-14.47,26.162],[-14.413,26.254],[-14.312,26.296],[-14.168,26.416],[-13.952,26.489],[-13.696,26.643],[-13.578,26.735],[-13.495,26.872],[-13.408,27.147],[-13.257,27.435],[-13.178,27.652],[-13.174,27.655],[-13.041,27.77],[-12.948,27.914],[-12.793,27.978],[-12.469,28.009],[-11.986,28.129],[-11.554,28.31],[-11.432,28.383],[-11.299,28.527],[-11.083,28.714],[-10.672,28.94],[-10.485,29.065],[-10.201,29.381],[-10.01,29.641],[-9.851,29.81],[-9.743,29.959],[-9.668,30.11],[-9.625,30.353],[-9.653,30.448],[-9.772,30.603],[-9.855,30.645],[-9.877,30.717],[-9.833,30.848],[-9.833,31.07],[-9.808,31.424],[-9.675,31.71],[-9.347,32.087],[-9.286,32.24],[-9.25,32.486],[-9.247,32.573],[-8.836,32.92],[-8.595,33.188],[-8.512,33.252],[-8.3,33.374],[-7.562,33.641],[-7.144,33.83],[-6.899,33.969],[-6.755,34.132],[-6.352,34.776],[-5.956,35.681],[-5.924,35.787],[-5.747,35.816],[-5.621,35.828],[-5.521,35.861],[-5.398,35.931],[-5.279,35.903],[-5.337,35.856],[-5.337,35.745],[-5.254,35.615],[-5.107,35.467],[-4.837,35.281],[-4.628,35.207],[-4.329,35.162],[-3.983,35.243],[-3.789,35.245],[-3.692,35.28],[-3.591,35.228],[-3.393,35.212],[-3.206,35.24],[-3.062,35.318],[-2.972,35.406],[-2.957,35.363],[-2.954,35.314],[-2.925,35.287],[-2.871,35.172],[-2.839,35.129],[-2.731,35.136],[-2.637,35.113],[-2.425,35.123],[-2.219,35.104]]]},"properties":{"name":"Morocco"}},{"type":"Feature","geometry":{"type":"MultiPolygon","coordinates":[[[[7.022,45.927],[7.054,45.904],[7.13,45.88],[7.328,45.913],[7.45,45.944],[7.54,45.979],[7.594,45.972],[7.789,45.921],[7.853,45.947],[7.994,46.015],[8.015,46.052],[8.123,46.161],[8.127,46.187],[8.08,46.256],[8.095,46.27],[8.231,46.342],[8.3,46.404],[8.372,46.446],[8.422,46.446],[8.437,46.432],[8.444,46.402],[8.437,46.282],[8.458,46.246],[8.566,46.159],[8.642,46.111],[8.818,46.078],[8.825,46.06],[8.779,45.996],[8.887,45.918],[8.905,45.862],[8.955,45.829],[9.023,45.845],[9.045,45.876],[9.02,45.928],[8.998,45.984],[9.002,46.015],[9.023,46.052],[9.07,46.102],[9.203,46.22],[9.25,46.286],[9.261,46.392],[9.261,46.475],[9.304,46.496],[9.398,46.48],[9.427,46.482],[9.441,46.43],[9.481,46.348],[9.527,46.307],[9.578,46.296],[9.639,46.296],[9.787,46.347],[9.884,46.368],[9.938,46.362],[9.97,46.328],[10.042,46.237],[10.082,46.229],[10.129,46.239],[10.147,46.253],[10.129,46.288],[10.111,46.362],[10.082,46.421],[10.046,46.447],[10.039,46.484],[10.06,46.546],[10.086,46.6],[10.136,46.614],[10.197,46.621],[10.273,46.565],[10.363,46.546],[10.431,46.55],[10.442,46.583],[10.438,46.619],[10.399,46.664],[10.406,46.736],[10.453,46.866],[10.478,46.855],[10.579,46.854],[10.69,46.847],[10.759,46.793],[10.827,46.776],[10.928,46.77],[10.993,46.777],[11.025,46.796],[11.065,46.859],[11.133,46.937],[11.245,46.975],[11.432,46.984],[11.529,46.998],[11.626,46.996],[11.698,46.984],[11.774,46.986],[11.968,47.039],[12.17,47.083],[12.199,47.076],[12.202,47.06],[12.166,47.029],[12.13,46.986],[12.156,46.935],[12.267,46.836],[12.328,46.76],[12.39,46.703],[12.48,46.673],[12.598,46.654],[12.699,46.647],[12.807,46.626],[13.167,46.572],[13.351,46.559],[13.491,46.555],[13.7,46.52],[13.678,46.463],[13.639,46.449],[13.563,46.414],[13.477,46.369],[13.401,46.317],[13.38,46.262],[13.401,46.225],[13.423,46.213],[13.452,46.223],[13.491,46.217],[13.545,46.197],[13.632,46.177],[13.635,46.157],[13.617,46.133],[13.549,46.09],[13.488,46.039],[13.48,46.01],[13.488,45.987],[13.509,45.973],[13.599,45.98],[13.614,45.961],[13.57,45.835],[13.585,45.812],[13.664,45.791],[13.722,45.762],[13.83,45.68],[13.876,45.614],[13.844,45.593],[13.776,45.581],[13.722,45.588],[13.783,45.628],[13.628,45.77],[13.56,45.77],[13.466,45.71],[13.207,45.772],[13.156,45.746],[13.12,45.697],[13.03,45.637],[12.904,45.611],[12.76,45.545],[12.613,45.498],[12.498,45.461],[12.433,45.468],[12.537,45.545],[12.49,45.546],[12.354,45.493],[12.274,45.446],[12.249,45.369],[12.224,45.241],[12.285,45.208],[12.393,45.04],[12.523,44.968],[12.498,44.899],[12.465,44.845],[12.386,44.798],[12.318,44.833],[12.278,44.833],[12.249,44.722],[12.307,44.43],[12.397,44.224],[12.487,44.135],[12.692,43.994],[12.908,43.922],[13.297,43.685],[13.509,43.613],[13.563,43.571],[13.693,43.39],[13.804,43.18],[13.923,42.852],[14.01,42.689],[14.182,42.507],[14.542,42.245],[14.866,42.052],[15.169,41.934],[15.406,41.913],[15.964,41.939],[16.062,41.929],[16.166,41.896],[16.188,41.814],[16.152,41.758],[16.033,41.701],[15.914,41.621],[15.9,41.512],[16.011,41.436],[16.551,41.232],[17.102,41.062],[17.275,40.976],[17.473,40.84],[17.955,40.654],[18.034,40.564],[18.33,40.371],[18.459,40.22],[18.484,40.104],[18.423,39.988],[18.394,39.904],[18.344,39.821],[18.218,39.852],[18.078,39.937],[17.865,40.279],[17.476,40.314],[17.397,40.34],[17.257,40.399],[17.25,40.437],[17.214,40.486],[17.181,40.503],[17.03,40.514],[16.929,40.458],[16.807,40.326],[16.67,40.137],[16.53,39.859],[16.522,39.748],[16.598,39.639],[16.825,39.578],[16.998,39.481],[17.113,39.38],[17.124,39.137],[17.174,38.998],[17.098,38.92],[16.951,38.939],[16.756,38.889],[16.616,38.8],[16.558,38.715],[16.573,38.493],[16.544,38.41],[16.281,38.25],[16.144,38.087],[16.108,38.019],[16.058,37.941],[15.723,37.939],[15.648,38.035],[15.644,38.175],[15.702,38.262],[15.824,38.304],[15.903,38.484],[15.878,38.615],[15.928,38.672],[15.972,38.712],[16.065,38.736],[16.198,38.759],[16.209,38.941],[16.108,39.024],[16.072,39.139],[16.022,39.354],[15.853,39.627],[15.763,39.87],[15.694,39.989],[15.586,40.054],[15.392,40.052],[15.295,40.069],[14.949,40.239],[14.928,40.265],[14.928,40.309],[14.985,40.378],[14.949,40.469],[14.906,40.555],[14.841,40.63],[14.766,40.668],[14.611,40.644],[14.557,40.627],[14.46,40.634],[14.384,40.601],[14.341,40.599],[14.46,40.729],[14.427,40.759],[14.308,40.812],[14.146,40.821],[14.103,40.828],[14.074,40.793],[14.046,40.812],[14.049,40.87],[13.858,41.13],[13.732,41.236],[13.671,41.255],[13.556,41.232],[13.362,41.279],[13.246,41.29],[13.185,41.278],[13.088,41.245],[13.041,41.265],[13.023,41.3],[12.85,41.41],[12.631,41.47],[12.206,41.812],[12.076,41.941],[11.806,42.081],[11.637,42.288],[11.497,42.363],[11.295,42.423],[11.248,42.416],[11.187,42.394],[11.14,42.39],[11.104,42.416],[11.14,42.444],[11.184,42.456],[11.169,42.534],[10.939,42.739],[10.802,42.804],[10.766,42.845],[10.737,42.901],[10.708,42.935],[10.644,42.958],[10.59,42.953],[10.514,42.967],[10.518,43.066],[10.532,43.14],[10.521,43.205],[10.449,43.371],[10.32,43.514],[10.248,43.852],[10.186,43.948],[10.046,44.02],[9.729,44.1],[9.29,44.319],[9.196,44.323],[8.93,44.408],[8.764,44.421],[8.552,44.347],[8.293,44.137],[8.08,43.92],[8.005,43.876],[7.735,43.802],[7.493,43.767],[7.49,43.823],[7.483,43.864],[7.522,43.911],[7.591,43.965],[7.652,44.034],[7.677,44.083],[7.666,44.116],[7.637,44.165],[7.598,44.168],[7.371,44.128],[7.317,44.139],[7.148,44.201],[6.968,44.281],[6.899,44.336],[6.874,44.392],[6.892,44.428],[6.878,44.463],[6.842,44.51],[6.874,44.564],[6.932,44.632],[6.961,44.677],[7.007,44.689],[7.029,44.717],[6.993,44.828],[6.971,44.845],[6.939,44.859],[6.889,44.861],[6.802,44.883],[6.737,44.921],[6.723,44.974],[6.691,45.022],[6.633,45.069],[6.629,45.118],[6.691,45.144],[6.781,45.145],[6.842,45.135],[6.982,45.215],[7.033,45.222],[7.079,45.239],[7.115,45.349],[7.148,45.381],[7.155,45.401],[7.126,45.423],[7.015,45.501],[6.961,45.581],[6.881,45.67],[6.806,45.71],[6.791,45.741],[6.788,45.781],[6.806,45.814],[6.939,45.868],[7.022,45.927]],[[12.44,41.899],[12.44,41.906],[12.429,41.906],[12.429,41.901],[12.429,41.897],[12.44,41.899]],[[12.487,43.901],[12.516,43.953],[12.505,43.989],[12.44,43.982],[12.397,43.935],[12.426,43.894],[12.487,43.901]]],[[[10.395,42.857],[10.428,42.819],[10.431,42.797],[10.41,42.771],[10.42,42.713],[10.334,42.762],[10.208,42.738],[10.132,42.743],[10.111,42.784],[10.129,42.81],[10.248,42.816],[10.287,42.828],[10.359,42.823],[10.395,42.857]]],[[[13.938,40.706],[13.894,40.698],[13.869,40.708],[13.855,40.724],[13.873,40.762],[13.963,40.739],[13.959,40.719],[13.938,40.706]]],[[[12.051,36.757],[12.004,36.747],[11.94,36.78],[11.936,36.828],[11.947,36.844],[12.026,36.821],[12.048,36.776],[12.051,36.757]]],[[[15.576,38.22],[15.507,38.106],[15.475,38.063],[15.234,37.785],[15.208,37.721],[15.19,37.651],[15.165,37.59],[15.133,37.531],[15.1,37.458],[15.104,37.375],[15.118,37.335],[15.147,37.307],[15.194,37.283],[15.23,37.245],[15.172,37.208],[15.237,37.139],[15.288,37.097],[15.295,37.056],[15.295,37.014],[15.187,36.934],[15.144,36.892],[15.115,36.839],[15.104,36.785],[15.115,36.736],[15.111,36.688],[15.003,36.695],[14.888,36.724],[14.776,36.71],[14.614,36.767],[14.557,36.776],[14.503,36.799],[14.366,36.972],[14.258,37.047],[14.143,37.104],[14.024,37.108],[13.905,37.101],[13.801,37.135],[13.588,37.254],[13.362,37.349],[13.264,37.41],[13.221,37.451],[13.171,37.479],[13.041,37.507],[12.922,37.571],[12.872,37.575],[12.757,37.568],[12.699,37.571],[12.642,37.594],[12.526,37.67],[12.454,37.774],[12.436,37.819],[12.487,37.939],[12.548,38.052],[12.602,38.085],[12.663,38.108],[12.703,38.142],[12.735,38.182],[12.85,38.064],[12.904,38.035],[12.955,38.042],[13.048,38.083],[13.056,38.13],[13.16,38.191],[13.29,38.191],[13.351,38.181],[13.383,38.127],[13.434,38.111],[13.491,38.102],[13.682,38],[13.736,37.984],[13.79,37.981],[13.938,38.024],[14.049,38.04],[14.287,38.017],[14.416,38.043],[14.506,38.045],[14.636,38.085],[14.737,38.151],[14.791,38.167],[14.845,38.172],[14.982,38.168],[15.118,38.153],[15.176,38.168],[15.223,38.212],[15.28,38.231],[15.342,38.217],[15.5,38.292],[15.568,38.295],[15.633,38.267],[15.576,38.22]]],[[[9.632,40.882],[9.682,40.818],[9.794,40.555],[9.805,40.5],[9.783,40.441],[9.754,40.401],[9.643,40.269],[9.661,40.16],[9.7,40.092],[9.707,40.017],[9.686,39.923],[9.617,39.354],[9.585,39.253],[9.563,39.167],[9.488,39.139],[9.387,39.168],[9.265,39.217],[9.207,39.213],[9.149,39.196],[9.103,39.212],[9.056,39.24],[9.023,39.043],[8.966,38.963],[8.883,38.913],[8.8,38.91],[8.717,38.927],[8.649,38.927],[8.595,38.963],[8.552,39.029],[8.487,39.111],[8.419,39.207],[8.411,39.292],[8.401,39.481],[8.419,39.522],[8.447,39.562],[8.462,39.647],[8.451,39.722],[8.473,39.748],[8.512,39.722],[8.541,39.731],[8.537,39.769],[8.548,39.838],[8.494,39.897],[8.408,39.917],[8.401,39.977],[8.408,40.038],[8.455,40.078],[8.469,40.13],[8.473,40.293],[8.408,40.352],[8.386,40.443],[8.354,40.5],[8.296,40.559],[8.231,40.606],[8.188,40.651],[8.181,40.771],[8.203,40.871],[8.224,40.913],[8.246,40.908],[8.311,40.857],[8.365,40.847],[8.469,40.835],[8.573,40.851],[8.699,40.896],[8.822,40.949],[8.998,41.111],[9.106,41.142],[9.164,41.186],[9.182,41.243],[9.229,41.257],[9.283,41.201],[9.351,41.196],[9.455,41.151],[9.499,41.106],[9.538,41.054],[9.574,41.031],[9.614,41.017],[9.621,41.005],[9.589,40.993],[9.553,40.932],[9.574,40.915],[9.632,40.882]]],[[[8.48,39.068],[8.422,38.969],[8.361,39.038],[8.357,39.099],[8.368,39.116],[8.44,39.09],[8.48,39.068]]],[[[8.285,41.04],[8.253,40.995],[8.206,40.998],[8.224,41.031],[8.267,41.099],[8.321,41.121],[8.343,41.102],[8.318,41.062],[8.285,41.04]]]]},"properties":{"name":"Italy"}},{"type":"Feature","geometry":{"type":"MultiPolygon","coordinates":[[[[9.481,42.805],[9.455,42.659],[9.473,42.616],[9.509,42.585],[9.527,42.552],[9.556,42.161],[9.549,42.13],[9.427,41.972],[9.401,41.927],[9.394,41.731],[9.373,41.679],[9.329,41.627],[9.254,41.46],[9.185,41.385],[9.002,41.477],[8.894,41.515],[8.843,41.559],[8.807,41.588],[8.829,41.628],[8.879,41.668],[8.887,41.701],[8.771,41.738],[8.717,41.762],[8.717,41.804],[8.757,41.87],[8.739,41.925],[8.674,41.922],[8.62,41.93],[8.617,41.96],[8.653,41.996],[8.703,42.043],[8.699,42.095],[8.642,42.118],[8.588,42.161],[8.566,42.218],[8.609,42.258],[8.674,42.284],[8.627,42.343],[8.591,42.345],[8.566,42.357],[8.588,42.385],[8.638,42.427],[8.714,42.55],[8.815,42.607],[8.995,42.646],[9.045,42.661],[9.088,42.705],[9.139,42.732],[9.196,42.729],[9.254,42.713],[9.286,42.694],[9.315,42.713],[9.337,42.767],[9.322,42.814],[9.329,42.944],[9.362,43.017],[9.416,43.022],[9.463,42.981],[9.459,42.946],[9.477,42.861],[9.481,42.805]]],[[[7.616,47.593],[7.493,47.548],[7.468,47.508],[7.421,47.456],[7.342,47.433],[7.267,47.427],[7.202,47.433],[7.166,47.454],[7.169,47.473],[7.137,47.489],[7.054,47.489],[6.968,47.453],[6.899,47.394],[6.921,47.361],[6.986,47.352],[7,47.34],[7,47.322],[6.979,47.302],[6.953,47.267],[6.82,47.163],[6.687,47.058],[6.665,47.027],[6.626,47.005],[6.457,46.949],[6.439,46.927],[6.428,46.833],[6.41,46.755],[6.284,46.683],[6.161,46.611],[6.129,46.567],[6.107,46.517],[6.068,46.458],[6.061,46.428],[6.122,46.378],[6.115,46.338],[6.097,46.279],[6.035,46.237],[5.971,46.215],[5.971,46.151],[6.007,46.142],[6.086,46.147],[6.201,46.192],[6.273,46.253],[6.23,46.309],[6.223,46.319],[6.233,46.333],[6.323,46.394],[6.428,46.43],[6.579,46.437],[6.759,46.416],[6.777,46.407],[6.766,46.369],[6.784,46.314],[6.817,46.276],[6.773,46.164],[6.806,46.131],[6.856,46.09],[6.896,46.052],[6.953,46.017],[7.004,45.96],[7.022,45.927],[6.939,45.868],[6.806,45.814],[6.788,45.781],[6.791,45.741],[6.806,45.71],[6.881,45.67],[6.961,45.581],[7.015,45.501],[7.126,45.423],[7.155,45.401],[7.148,45.381],[7.115,45.349],[7.079,45.239],[7.033,45.222],[6.982,45.215],[6.842,45.135],[6.781,45.145],[6.691,45.144],[6.629,45.118],[6.633,45.069],[6.691,45.022],[6.723,44.974],[6.737,44.921],[6.802,44.883],[6.889,44.861],[6.939,44.859],[6.971,44.845],[6.993,44.828],[7.029,44.717],[7.007,44.689],[6.961,44.677],[6.932,44.632],[6.874,44.564],[6.842,44.51],[6.878,44.463],[6.892,44.428],[6.874,44.392],[6.899,44.336],[6.968,44.281],[7.148,44.201],[7.317,44.139],[7.371,44.128],[7.598,44.168],[7.637,44.165],[7.666,44.116],[7.677,44.083],[7.652,44.034],[7.591,43.965],[7.522,43.911],[7.483,43.864],[7.49,43.823],[7.493,43.767],[7.439,43.75],[7.436,43.762],[7.414,43.77],[7.396,43.765],[7.382,43.753],[7.378,43.732],[7.263,43.696],[7.18,43.659],[6.863,43.439],[6.716,43.373],[6.687,43.335],[6.658,43.262],[6.572,43.199],[6.493,43.17],[6.305,43.139],[6.115,43.073],[6.032,43.1],[5.809,43.099],[5.672,43.179],[5.405,43.229],[5.319,43.345],[5.2,43.352],[5.121,43.349],[5.074,43.366],[5.06,43.406],[5.06,43.444],[4.977,43.427],[4.912,43.427],[4.873,43.411],[4.844,43.394],[4.808,43.406],[4.786,43.401],[4.79,43.378],[4.711,43.373],[4.628,43.387],[4.408,43.448],[4.376,43.456],[4.225,43.479],[4.163,43.503],[4.113,43.564],[4.073,43.581],[4.052,43.593],[3.911,43.564],[3.861,43.517],[3.785,43.461],[3.26,43.192],[3.163,43.081],[3.051,42.915],[3.044,42.838],[3.091,42.592],[3.199,42.462],[3.213,42.43],[3.152,42.43],[3.051,42.448],[2.968,42.467],[2.893,42.456],[2.817,42.429],[2.749,42.413],[2.702,42.408],[2.669,42.394],[2.655,42.363],[2.651,42.34],[2.569,42.345],[2.374,42.39],[2.201,42.422],[2.097,42.387],[2.032,42.354],[1.985,42.359],[1.953,42.392],[1.928,42.427],[1.859,42.456],[1.705,42.503],[1.715,42.526],[1.741,42.557],[1.741,42.576],[1.708,42.604],[1.568,42.635],[1.503,42.642],[1.46,42.621],[1.427,42.595],[1.348,42.691],[1.294,42.71],[1.208,42.713],[1.111,42.743],[1.01,42.779],[0.765,42.838],[0.697,42.845],[0.671,42.837],[0.653,42.8],[0.643,42.701],[0.632,42.689],[0.517,42.685],[0.376,42.699],[0.311,42.692],[0.254,42.692],[0.2,42.72],[-0.041,42.689],[-0.081,42.705],[-0.139,42.75],[-0.207,42.786],[-0.257,42.804],[-0.301,42.826],[-0.34,42.83],[-0.398,42.809],[-0.481,42.8],[-0.549,42.802],[-0.585,42.798],[-0.74,42.909],[-0.761,42.939],[-0.841,42.948],[-0.934,42.949],[-1.175,43.021],[-1.287,43.06],[-1.301,43.083],[-1.301,43.1],[-1.319,43.097],[-1.352,43.064],[-1.37,43.038],[-1.395,43.033],[-1.427,43.036],[-1.46,43.052],[-1.481,43.071],[-1.46,43.106],[-1.424,43.149],[-1.406,43.198],[-1.409,43.239],[-1.471,43.267],[-1.561,43.279],[-1.625,43.283],[-1.712,43.307],[-1.755,43.324],[-1.791,43.373],[-1.795,43.408],[-1.633,43.437],[-1.485,43.564],[-1.345,44.02],[-1.244,44.56],[-1.172,44.661],[-1.078,44.691],[-1.154,44.763],[-1.201,44.727],[-1.219,44.687],[-1.244,44.666],[-1.19,45.161],[-1.15,45.343],[-1.082,45.533],[-0.941,45.458],[-0.826,45.381],[-0.765,45.314],[-0.689,45.093],[-0.635,45.046],[-0.549,45.001],[-0.581,45.052],[-0.643,45.09],[-0.733,45.385],[-0.79,45.468],[-0.88,45.538],[-1.168,45.685],[-1.197,45.715],[-1.211,45.77],[-1.114,45.769],[-1.031,45.741],[-1.042,45.772],[-1.067,45.805],[-1.103,45.925],[-1.136,46.204],[-1.132,46.253],[-1.147,46.312],[-1.24,46.324],[-1.312,46.328],[-1.391,46.35],[-1.787,46.515],[-1.921,46.685],[-2.061,46.81],[-2.093,46.866],[-2.09,46.921],[-2.018,47.038],[-2.083,47.112],[-2.144,47.126],[-2.198,47.163],[-2.147,47.223],[-2.108,47.263],[-2.029,47.274],[-1.921,47.26],[-1.82,47.225],[-1.744,47.216],[-1.975,47.31],[-2.353,47.279],[-2.435,47.291],[-2.504,47.312],[-2.529,47.381],[-2.475,47.413],[-2.428,47.472],[-2.482,47.512],[-2.554,47.527],[-2.666,47.525],[-2.77,47.513],[-2.795,47.538],[-2.734,47.602],[-2.788,47.626],[-2.86,47.614],[-2.965,47.602],[-3.065,47.621],[-3.159,47.694],[-3.22,47.694],[-3.263,47.685],[-3.328,47.713],[-3.397,47.72],[-3.443,47.711],[-3.508,47.753],[-3.901,47.838],[-4.07,47.848],[-4.225,47.81],[-4.311,47.822],[-4.376,47.878],[-4.426,47.968],[-4.678,48.039],[-4.628,48.086],[-4.513,48.097],[-4.379,48.13],[-4.329,48.17],[-4.433,48.218],[-4.513,48.23],[-4.545,48.248],[-4.577,48.289],[-4.531,48.31],[-4.498,48.3],[-4.405,48.293],[-4.243,48.303],[-4.3,48.347],[-4.365,48.357],[-4.394,48.367],[-4.523,48.373],[-4.585,48.357],[-4.718,48.364],[-4.75,48.411],[-4.761,48.451],[-4.721,48.539],[-4.531,48.619],[-4.059,48.708],[-3.857,48.696],[-3.713,48.711],[-3.544,48.765],[-3.472,48.814],[-3.231,48.841],[-3.004,48.791],[-2.792,48.602],[-2.691,48.538],[-2.446,48.649],[-2.079,48.645],[-2.003,48.583],[-1.975,48.635],[-1.906,48.697],[-1.852,48.669],[-1.823,48.631],[-1.438,48.642],[-1.377,48.652],[-1.481,48.697],[-1.564,48.805],[-1.582,49.202],[-1.69,49.314],[-1.813,49.491],[-1.87,49.595],[-1.874,49.631],[-1.856,49.683],[-1.705,49.682],[-1.589,49.668],[-1.366,49.708],[-1.258,49.68],[-1.265,49.598],[-1.233,49.494],[-1.193,49.445],[-1.139,49.388],[-0.959,49.393],[-0.765,49.36],[-0.52,49.355],[-0.164,49.296],[-0.013,49.331],[0.135,49.402],[0.416,49.449],[0.441,49.473],[0.279,49.463],[0.128,49.508],[0.11,49.558],[0.128,49.602],[0.185,49.702],[0.617,49.862],[0.923,49.911],[1.244,49.998],[1.406,50.088],[1.514,50.206],[1.55,50.23],[1.593,50.253],[1.55,50.294],[1.579,50.739],[1.611,50.819],[1.672,50.885],[1.769,50.935],[1.913,50.991],[2.446,51.067],[2.525,51.096],[2.536,51.05],[2.576,50.989],[2.601,50.956],[2.579,50.912],[2.597,50.876],[2.669,50.812],[2.759,50.751],[2.839,50.711],[2.864,50.716],[2.921,50.727],[3.022,50.767],[3.109,50.779],[3.155,50.749],[3.181,50.732],[3.235,50.662],[3.249,50.591],[3.274,50.532],[3.317,50.508],[3.476,50.499],[3.595,50.477],[3.627,50.458],[3.667,50.326],[3.688,50.307],[3.721,50.322],[3.749,50.343],[3.789,50.346],[3.857,50.338],[3.951,50.336],[4.045,50.322],[4.174,50.246],[4.171,50.221],[4.145,50.178],[4.135,50.143],[4.156,50.129],[4.192,50.095],[4.185,50.053],[4.149,50.024],[4.138,49.999],[4.138,49.984],[4.149,49.971],[4.178,49.961],[4.369,49.945],[4.545,49.961],[4.657,50.003],[4.675,50.046],[4.707,50.096],[4.772,50.14],[4.819,50.154],[4.862,50.136],[4.79,49.959],[4.84,49.914],[4.847,49.846],[4.869,49.787],[4.93,49.789],[5.006,49.779],[5.06,49.756],[5.125,49.722],[5.215,49.689],[5.279,49.678],[5.301,49.65],[5.355,49.619],[5.434,49.555],[5.506,49.511],[5.542,49.511],[5.611,49.529],[5.711,49.539],[5.791,49.537],[5.823,49.505],[5.902,49.491],[5.927,49.477],[5.96,49.454],[6.01,49.445],[6.075,49.454],[6.118,49.485],[6.179,49.499],[6.241,49.494],[6.277,49.477],[6.345,49.452],[6.381,49.458],[6.457,49.442],[6.536,49.395],[6.565,49.347],[6.575,49.32],[6.608,49.291],[6.734,49.161],[6.777,49.154],[6.82,49.175],[6.849,49.202],[6.892,49.208],[6.957,49.195],[7,49.18],[7.022,49.123],[7.036,49.112],[7.065,49.124],[7.119,49.128],[7.198,49.114],[7.313,49.13],[7.403,49.154],[7.45,49.152],[7.526,49.086],[7.612,49.062],[7.799,49.043],[8.001,49.011],[8.08,48.985],[8.134,48.973],[8.141,48.886],[8.123,48.873],[7.922,48.699],[7.839,48.636],[7.796,48.546],[7.763,48.411],[7.706,48.281],[7.616,48.157],[7.583,48.064],[7.609,48.003],[7.594,47.906],[7.54,47.774],[7.529,47.673],[7.565,47.607],[7.616,47.593]]],[[[-1.179,45.904],[-1.215,45.817],[-1.28,45.897],[-1.37,45.968],[-1.388,46.032],[-1.388,46.05],[-1.283,46.003],[-1.179,45.904]]],[[[45.179,-12.976],[45.117,-12.985],[45.089,-12.959],[45.071,-12.896],[45.089,-12.835],[45.092,-12.787],[45.042,-12.702],[45.092,-12.653],[45.135,-12.709],[45.157,-12.712],[45.222,-12.752],[45.204,-12.825],[45.207,-12.848],[45.179,-12.92],[45.179,-12.976]]],[[[55.799,-21.34],[55.655,-21.37],[55.558,-21.359],[55.363,-21.274],[55.309,-21.217],[55.234,-21.059],[55.252,-21.003],[55.313,-20.904],[55.45,-20.864],[55.597,-20.88],[55.662,-20.906],[55.738,-21.021],[55.838,-21.139],[55.824,-21.278],[55.799,-21.34]]],[[[-60.828,14.495],[-60.835,14.437],[-60.86,14.427],[-60.9,14.474],[-61.062,14.467],[-61.087,14.51],[-61.091,14.529],[-61.012,14.602],[-61.105,14.621],[-61.141,14.652],[-61.22,14.804],[-61.213,14.849],[-61.181,14.871],[-61.127,14.875],[-61.026,14.826],[-60.954,14.757],[-60.929,14.755],[-60.918,14.736],[-60.932,14.685],[-60.889,14.644],[-60.871,14.614],[-60.828,14.495]]],[[[-61.328,16.231],[-61.444,16.22],[-61.523,16.229],[-61.541,16.3],[-61.501,16.361],[-61.53,16.434],[-61.512,16.477],[-61.472,16.507],[-61.408,16.468],[-61.397,16.413],[-61.357,16.362],[-61.174,16.257],[-61.328,16.231]]],[[[-61.591,16.007],[-61.67,15.961],[-61.71,15.975],[-61.76,16.062],[-61.793,16.302],[-61.768,16.34],[-61.75,16.356],[-61.642,16.326],[-61.598,16.293],[-61.552,16.27],[-61.577,16.227],[-61.562,16.048],[-61.591,16.007]]],[[[-61.231,15.89],[-61.285,15.887],[-61.31,15.895],[-61.318,15.954],[-61.274,15.996],[-61.249,16.007],[-61.213,15.96],[-61.202,15.922],[-61.231,15.89]]],[[[-54.618,2.327],[-54.604,2.336],[-54.568,2.342],[-54.535,2.342],[-54.485,2.415],[-54.402,2.462],[-54.258,2.714],[-54.197,2.818],[-54.19,2.875],[-54.172,2.993],[-54.204,3.138],[-54.19,3.179],[-54.064,3.353],[-54.01,3.448],[-54.006,3.53],[-53.992,3.589],[-54.006,3.62],[-54.035,3.629],[-54.082,3.705],[-54.114,3.769],[-54.197,3.834],[-54.254,3.901],[-54.352,4.054],[-54.341,4.139],[-54.37,4.171],[-54.398,4.202],[-54.395,4.242],[-54.416,4.337],[-54.442,4.427],[-54.449,4.485],[-54.427,4.584],[-54.442,4.691],[-54.47,4.749],[-54.481,4.837],[-54.474,4.915],[-54.445,4.959],[-54.452,5.014],[-54.33,5.188],[-54.24,5.288],[-54.157,5.36],[-54.085,5.412],[-53.988,5.676],[-53.92,5.769],[-53.848,5.782],[-53.455,5.563],[-53.272,5.544],[-52.901,5.426],[-52.764,5.273],[-52.454,5.021],[-52.292,4.943],[-52.289,4.875],[-52.325,4.771],[-52.22,4.863],[-52.058,4.717],[-52.012,4.646],[-51.961,4.514],[-51.979,4.429],[-52.001,4.386],[-52.004,4.353],[-51.954,4.4],[-51.929,4.436],[-51.918,4.525],[-51.882,4.634],[-51.828,4.636],[-51.785,4.57],[-51.698,4.287],[-51.666,4.23],[-51.652,4.139],[-51.659,4.099],[-51.652,4.061],[-51.684,4.04],[-51.767,3.993],[-51.806,3.929],[-51.828,3.87],[-51.878,3.829],[-51.929,3.776],[-51.943,3.735],[-51.99,3.702],[-52.001,3.646],[-52.116,3.452],[-52.163,3.365],[-52.231,3.271],[-52.271,3.237],[-52.328,3.181],[-52.357,3.118],[-52.357,3.051],[-52.397,2.973],[-52.418,2.903],[-52.454,2.863],[-52.555,2.648],[-52.559,2.573],[-52.584,2.528],[-52.652,2.426],[-52.699,2.363],[-52.782,2.316],[-52.872,2.266],[-52.904,2.212],[-52.966,2.183],[-53.009,2.181],[-53.081,2.202],[-53.182,2.211],[-53.228,2.205],[-53.254,2.233],[-53.286,2.296],[-53.333,2.339],[-53.365,2.323],[-53.434,2.28],[-53.509,2.254],[-53.563,2.263],[-53.682,2.292],[-53.736,2.308],[-53.75,2.336],[-53.768,2.355],[-53.794,2.346],[-53.83,2.313],[-53.876,2.278],[-53.945,2.233],[-54.089,2.15],[-54.128,2.12],[-54.168,2.138],[-54.229,2.153],[-54.294,2.155],[-54.434,2.207],[-54.514,2.245],[-54.55,2.294],[-54.593,2.313],[-54.618,2.327]]]]},"properties":{"name":"France"}},{"type":"Feature","geometry":{"type":"Polygon","coordinates":[[[1.705,42.503],[1.679,42.496],[1.586,42.456],[1.535,42.442],[1.485,42.434],[1.449,42.437],[1.427,42.462],[1.431,42.498],[1.42,42.531],[1.417,42.548],[1.427,42.595],[1.46,42.621],[1.503,42.642],[1.568,42.635],[1.708,42.604],[1.741,42.576],[1.741,42.557],[1.715,42.526],[1.705,42.503]]]},"properties":{"name":"Andorra"}},{"type":"Feature","geometry":{"type":"Polygon","coordinates":[[[8.577,36.938],[8.599,36.884],[8.602,36.833],[8.505,36.788],[8.444,36.761],[8.368,36.632],[8.231,36.545],[8.206,36.519],[8.21,36.495],[8.303,36.455],[8.332,36.419],[8.35,36.368],[8.307,36.189],[8.282,36.05],[8.246,35.87],[8.246,35.802],[8.282,35.719],[8.318,35.655],[8.329,35.582],[8.318,35.403],[8.361,35.299],[8.393,35.203],[8.311,35.085],[8.278,34.979],[8.253,34.828],[8.246,34.735],[8.192,34.646],[8.123,34.564],[8.044,34.512],[7.951,34.469],[7.839,34.41],[7.749,34.254],[7.555,34.125],[7.515,34.08],[7.497,33.976],[7.501,33.832],[7.533,33.717],[7.627,33.549],[7.709,33.363],[7.731,33.268],[7.763,33.233],[7.879,33.172],[8.077,33.089],[8.113,33.056],[8.21,32.927],[8.303,32.697],[8.332,32.544],[8.516,32.422],[8.681,32.311],[8.843,32.212],[9.02,32.105],[9.045,32.072],[9.103,31.846],[9.16,31.622],[9.225,31.374],[9.286,31.125],[9.362,30.832],[9.405,30.667],[9.459,30.466],[9.52,30.23],[9.419,30.179],[9.311,30.115],[9.391,29.994],[9.545,29.796],[9.639,29.636],[9.671,29.567],[9.747,29.369],[9.805,29.178],[9.819,29.115],[9.844,28.968],[9.815,28.56],[9.859,28.044],[9.916,27.785],[9.826,27.553],[9.747,27.331],[9.754,27.219],[9.794,27.044],[9.837,26.916],[9.895,26.848],[9.884,26.631],[9.859,26.553],[9.686,26.438],[9.491,26.334],[9.437,26.246],[9.423,26.147],[9.448,26.067],[9.581,25.89],[9.779,25.624],[9.999,25.332],[10.021,25.258],[10.028,25.051],[10.118,24.791],[10.219,24.676],[10.255,24.591],[10.327,24.53],[10.395,24.485],[10.438,24.48],[10.687,24.551],[11.108,24.435],[11.508,24.315],[11.536,24.291],[11.623,24.14],[11.767,23.893],[11.875,23.695],[11.968,23.518],[11.45,23.213],[10.932,22.907],[10.413,22.602],[9.895,22.296],[9.38,21.991],[8.861,21.687],[8.343,21.381],[7.825,21.076],[7.483,20.873],[7.263,20.694],[6.989,20.47],[6.73,20.248],[6.529,20.072],[6.262,19.847],[6.129,19.732],[5.837,19.479],[5.747,19.433],[5.359,19.359],[5.002,19.291],[4.671,19.229],[4.444,19.185],[4.228,19.144],[3.911,19.085],[3.685,19.041],[3.44,18.996],[3.4,18.989],[3.357,18.987],[3.325,18.989],[3.256,19.013],[3.173,19.072],[3.119,19.104],[3.105,19.15],[3.137,19.213],[3.177,19.269],[3.191,19.312],[3.22,19.345],[3.253,19.373],[3.256,19.411],[3.227,19.473],[3.202,19.56],[3.202,19.718],[3.202,19.77],[3.202,19.789],[3.13,19.85],[2.993,19.916],[2.867,19.956],[2.806,19.97],[2.669,19.992],[2.475,20.036],[2.407,20.064],[2.281,20.209],[2.219,20.248],[1.928,20.272],[1.834,20.296],[1.755,20.331],[1.687,20.378],[1.647,20.459],[1.636,20.524],[1.611,20.555],[1.291,20.713],[1.208,20.767],[1.165,20.817],[1.165,20.892],[1.172,20.982],[1.157,21.062],[1.147,21.102],[0.999,21.197],[0.671,21.412],[0.344,21.626],[0.016,21.84],[-0.311,22.055],[-0.639,22.268],[-0.967,22.482],[-1.294,22.697],[-1.622,22.911],[-1.949,23.124],[-2.277,23.339],[-2.605,23.553],[-2.929,23.767],[-3.256,23.982],[-3.584,24.195],[-3.911,24.409],[-4.239,24.624],[-4.516,24.805],[-4.822,24.996],[-5.049,25.136],[-5.276,25.275],[-5.517,25.424],[-5.675,25.516],[-5.863,25.628],[-6.05,25.737],[-6.237,25.848],[-6.428,25.959],[-6.615,26.07],[-6.802,26.18],[-6.989,26.291],[-7.18,26.402],[-7.367,26.511],[-7.555,26.622],[-7.742,26.733],[-7.933,26.843],[-8.12,26.954],[-8.307,27.065],[-8.494,27.176],[-8.685,27.285],[-8.685,27.49],[-8.685,27.657],[-8.685,27.9],[-8.685,28.112],[-8.685,28.324],[-8.685,28.469],[-8.685,28.62],[-8.678,28.69],[-8.66,28.719],[-8.559,28.768],[-8.401,28.881],[-8.339,28.929],[-8.264,28.98],[-7.997,29.133],[-7.943,29.174],[-7.684,29.35],[-7.623,29.376],[-7.486,29.393],[-7.429,29.424],[-7.349,29.495],[-7.234,29.575],[-7.159,29.613],[-7.141,29.62],[-7.094,29.626],[-6.856,29.601],[-6.755,29.584],[-6.637,29.568],[-6.597,29.579],[-6.565,29.605],[-6.521,29.66],[-6.511,29.726],[-6.507,29.784],[-6.5,29.81],[-6.478,29.82],[-6.428,29.816],[-6.356,29.808],[-6.215,29.811],[-6.165,29.818],[-6.003,29.832],[-5.776,29.869],[-5.593,29.917],[-5.449,29.957],[-5.294,30.058],[-5.179,30.165],[-5.063,30.327],[-4.97,30.466],[-4.779,30.553],[-4.621,30.605],[-4.531,30.625],[-4.322,30.698],[-4.149,30.809],[-3.987,30.914],[-3.861,30.928],[-3.703,30.945],[-3.667,30.964],[-3.627,31],[-3.623,31.066],[-3.674,31.112],[-3.731,31.136],[-3.771,31.162],[-3.811,31.167],[-3.832,31.198],[-3.821,31.256],[-3.814,31.309],[-3.789,31.362],[-3.796,31.438],[-3.836,31.513],[-3.85,31.566],[-3.847,31.62],[-3.825,31.662],[-3.767,31.69],[-3.699,31.7],[-3.605,31.686],[-3.44,31.705],[-3.019,31.834],[-2.99,31.874],[-2.961,31.964],[-2.932,32.042],[-2.885,32.068],[-2.864,32.075],[-2.723,32.096],[-2.522,32.125],[-2.45,32.131],[-2.23,32.122],[-2.072,32.115],[-1.816,32.105],[-1.636,32.099],[-1.478,32.094],[-1.276,32.089],[-1.226,32.108],[-1.226,32.165],[-1.262,32.271],[-1.24,32.337],[-1.161,32.4],[-1.064,32.469],[-1.111,32.552],[-1.19,32.608],[-1.298,32.676],[-1.352,32.703],[-1.449,32.785],[-1.51,32.877],[-1.55,33.073],[-1.625,33.183],[-1.679,33.318],[-1.633,33.566],[-1.705,33.717],[-1.715,33.782],[-1.715,33.858],[-1.694,33.99],[-1.708,34.176],[-1.791,34.368],[-1.751,34.433],[-1.733,34.467],[-1.741,34.497],[-1.816,34.558],[-1.849,34.608],[-1.834,34.655],[-1.791,34.722],[-1.795,34.752],[-1.921,34.835],[-2.133,34.971],[-2.191,35.03],[-2.219,35.104],[-2.018,35.085],[-1.913,35.094],[-1.672,35.182],[-1.485,35.302],[-1.337,35.365],[-1.204,35.495],[-1.089,35.578],[-0.916,35.669],[-0.427,35.861],[-0.351,35.863],[-0.189,35.82],[-0.049,35.833],[0.049,35.901],[0.153,36.063],[0.311,36.162],[0.517,36.262],[0.79,36.356],[0.97,36.445],[1.258,36.519],[1.975,36.568],[2.342,36.609],[2.594,36.601],[2.846,36.74],[2.972,36.785],[3.519,36.795],[3.778,36.896],[4.757,36.896],[4.876,36.863],[4.995,36.807],[5.197,36.677],[5.294,36.648],[5.423,36.675],[5.726,36.8],[6.064,36.865],[6.248,36.938],[6.327,37.045],[6.485,37.085],[6.575,37.004],[6.928,36.92],[7.144,36.943],[7.238,36.969],[7.205,37.092],[7.432,37.059],[7.609,37],[7.792,36.88],[7.911,36.856],[8.127,36.91],[8.577,36.938]]]},"properties":{"name":"Algeria"}}]}